STARLINK-32363          
1 61678C 24193T   26115.12965278  .00089280  00000+0  27145-2 0  1159
2 61678  53.1595 234.9703 0001414  91.2792 187.2201 15.33440918    16
STARLINK-32395          
1 61679C 24193U   26115.08590278 -.00044724  00000+0 -15076-2 0  1155
2 61679  53.1576 235.8359 0001211  93.9585 326.8344 15.30208531    16
STARLINK-32412          
1 61680C 24193V   26115.15465278 -.00017631  00000+0 -59433-3 0  1159
2 61680  53.1579 235.4341 0001148  95.9693  24.4811 15.30195573    10
STARLINK-32426          
1 61681C 24193W   26115.12479167 -.00038873  00000+0 -13104-2 0  1154
2 61681  53.1580 235.6197 0001248  93.8602 198.7289 15.30205361    13
STARLINK-32429          
1 61682C 24193X   26115.11993056 -.00000776  00000+0 -26161-4 0  1152
2 61682  53.1574 235.0866 0001129  88.3076  96.6827 15.30187384    14
STARLINK-11335 [DTC]    
1 61687C 24195A   26115.11715278  .00084244  00000+0  69408-3 0  1157
2 61687  53.1568 157.7418 0001057  83.1180 174.7840 15.69662970    18
STARLINK-11344 [DTC]    
1 61688C 24195B   26115.12826389  .00042923  00000+0  35367-3 0  1150
2 61688  53.1575 157.6303 0001205  83.1593 265.3061 15.69681184    12
STARLINK-11312 [DTC]    
1 61689C 24195C   26115.15465278  .00061925  00000+0  51018-3 0  1154
2 61689  53.1578 157.4434 0001244  85.9663  79.4427 15.69674699    13
STARLINK-11340 [DTC]    
1 61690C 24195D   26115.11437500  .00074957  00000+0  61781-3 0  1156
2 61690  53.1572 157.5848 0001276  95.7504 229.6687 15.69657481    14
STARLINK-11339 [DTC]    
1 61691C 24195E   26115.11993056  .00076890  00000+0  63328-3 0  1157
2 61691  53.1574 157.4438 0001253  88.0922 324.1884 15.69674382    14
STARLINK-11315 [DTC]    
1 61692C 24195F   26115.12895833  .00075107  00000+0  61876-3 0  1159
2 61692  53.1577 157.4560 0001282 106.1061 329.4929 15.69668667    19
STARLINK-11366 [DTC]    
1 61693C 24195G   26115.09006944  .00046887  00000+0  38640-3 0  1159
2 61693  53.1571 157.5335 0001172  75.9236 195.2667 15.69675101    19
STARLINK-11348 [DTC]    
1 61694C 24195H   26115.10951389  .00059624  00000+0  49123-3 0  1155
2 61694  53.1574 157.3807 0001226  80.6274 328.2379 15.69675257    10
STARLINK-11327 [DTC]    
1 61695C 24195J   26115.13243056  .00048668  00000+0  40082-3 0  1155
2 61695  53.1577 157.2112 0001271 110.8137  95.3526 15.69689470    14
STARLINK-11341 [DTC]    
1 61696C 24195K   26115.11020833  .00044803  00000+0  36908-3 0  1159
2 61696  53.1576 157.2636 0001162  88.7884  19.4758 15.69685245    16
STARLINK-11346 [DTC]    
1 61697C 24195L   26115.13659722  .00064364  00000+0  52948-3 0  1153
2 61697  53.1571 157.0771 0001162  89.6591 195.4962 15.69709318    15
STARLINK-11296 [DTC]    
1 61699C 24195N   26115.14006944  .00071443  00000+0  58855-3 0  1157
2 61699  53.1569 156.9458 0001207  74.5753 285.7445 15.69671459    10
STARLINK-32349          
1 61700C 24195P   26115.09076389 -.00012652  00000+0 -42623-3 0  1159
2 61700  53.1582 299.9030 0001169  84.9865 312.3623 15.30212437    18
STARLINK-32461          
1 61701C 24195Q   26115.14770833 -.00085792  00000+0 -26010-2 0  1157
2 61701  53.1589 299.5234 0001621  81.2879 327.7574 15.33619023    16
STARLINK-32299          
1 61702C 24195R   26115.10048611  .00001912  00000+0  64429-4 0  1154
2 61702  53.1578 299.6045 0000998  89.4998 129.4091 15.30201435    16
STARLINK-32335          
1 61703C 24195S   26115.11020833  .00219750  00000+0  83444-3 0  1150
2 61703  53.1378 281.3697 0010844 261.2423  64.7363 15.86680656    10
STARLINK-32387          
1 61704C 24195T   26115.10812500  .01518900  00000+0  48229-1 0  1150
2 61704  53.1594 299.3371 0001277  74.3047 303.7792 15.31350660    15
STARLINK-32515          
1 61705C 24195U   26115.14423611 -.00033292  00000+0 -11220-2 0  1155
2 61705  53.1597 299.8693 0001202  89.0592 132.5149 15.30209955    10
STARLINK-32533          
1 61706C 24195V   26115.08590278  .00778520  00000+0  23776-1 0  1159
2 61706  53.1592 299.4582 0001480  80.5828 166.2893 15.32956183    19
STARLINK-32376          
1 61707C 24196A   26115.14354167 -.00039260  00000+0 -13232-2 0  1153
2 61707  53.1594 245.2399 0001198  91.1342 264.8536 15.30211067    14
STARLINK-32402          
1 61708C 24196B   26115.11645833 -.00067659  00000+0 -22804-2 0  1152
2 61708  53.1584 245.6948 0001133  87.9930 310.0385 15.30225290    12
STARLINK-32314          
1 61709C 24196C   26115.09909722 -.00042554  00000+0 -14342-2 0  1155
2 61709  53.1583 245.5899 0001235  92.6042 302.8002 15.30212287    13
STARLINK-32404          
1 61710C 24196D   26115.10187500 -.00028549  00000+0 -96225-3 0  1150
2 61710  53.1577 245.9724 0001240  87.8624 125.0750 15.30204934    12
STARLINK-32312          
1 61711C 24196E   26115.15187500 -.00030738  00000+0 -10361-2 0  1155
2 61711  53.1592 245.2635 0001236  94.0896 272.9392 15.30204194    12
STARLINK-32343          
1 61712C 24196F   26115.12270833 -.00073653  00000+0 -24823-2 0  1156
2 61712  53.1572 245.7584 0001199  88.2020 297.7401 15.30228996    13
STARLINK-32467          
1 61713C 24196G   26115.09562500 -.00068691  00000+0 -23151-2 0  1157
2 61713  53.1588 246.1272 0001226  92.7873  21.7339 15.30225629    12
STARLINK-32440          
1 61714C 24196H   26115.11923611 -.00060961  00000+0 -20547-2 0  1153
2 61714  53.1571 245.7042 0001196  90.4915 311.2156 15.30219982    12
STARLINK-32459          
1 61715C 24196J   26115.12687500 -.00013031  00000+0 -43924-3 0  1150
2 61715  53.1579 245.5293 0001219  94.9492  58.6654 15.30194624    12
STARLINK-32465          
1 61716C 24196K   26115.10465278 -.00075462  00000+0 -25433-2 0  1155
2 61716  53.1582 246.0275 0001153  90.8737 102.4835 15.30230596    15
STARLINK-32457          
1 61717C 24196L   26115.15187500 -.00021152  00000+0 -71298-3 0  1158
2 61717  53.1580 245.3782 0001063  93.2131 215.6437 15.30198343    12
STARLINK-32591          
1 61718C 24196M   26115.09145833  .01451900  00000+0  48282-1 0  1157
2 61718  53.1589 233.1320 0000893  82.7175 105.0365 15.29901529    14
STARLINK-32344          
1 61719C 24196N   26115.14701389 -.00010513  00000+0 -35430-3 0  1153
2 61719  53.1573 245.7247 0001209  89.9507  29.2398 15.30197831    13
STARLINK-32322          
1 61720C 24196P   26115.10326389 -.00118110  00000+0 -39783-2 0  1150
2 61720  53.1585 246.0674 0000725 120.6395  47.5680 15.30271157    17
STARLINK-32469          
1 61721C 24196Q   26115.12687500  .00034274  00000+0  11557-2 0  1153
2 61721  53.1588 245.4247 0001172  80.0725 125.8920 15.30159166    15
STARLINK-32438          
1 61722C 24196R   26115.11368056 -.00064866  00000+0 -21863-2 0  1158
2 61722  53.1578 245.9496 0001153  95.4152 165.1638 15.30223153    10
STARLINK-32540          
1 61723C 24196S   26115.14423611  .00029124  00000+0  98172-3 0  1155
2 61723  53.1582 209.7471 0001228  91.2953 337.9712 15.30172683    16
STARLINK-32528          
1 61724C 24196T   26115.15187500 -.00041027  00000+0 -13828-2 0  1153
2 61724  53.1588 245.8755 0001215  94.7268 324.0228 15.30210560    18
STARLINK-32573          
1 61725C 24196U   26115.14145833  .00092093  00000+0  31076-2 0  1158
2 61725  53.1572 245.7150 0001177 129.9420 336.0388 15.30106646    17
STARLINK-32478          
1 61726C 24196V   26115.10118056 -.00094642  00000+0 -31896-2 0  1156
2 61726  53.1570 245.8216 0001248  88.6784 196.0587 15.30240523    11
STARLINK-32511          
1 61727C 24196W   26115.09006944 -.00059790  00000+0 -20152-2 0  1155
2 61727  53.1571 245.8031 0001185  88.9507 169.4445 15.30219659    17
STARLINK-32475          
1 61728C 24196X   26115.09076389 -.00033870  00000+0 -11418-2 0  1152
2 61728  53.1575 245.7291 0001032 103.0582 194.0715 15.30201981    15
STARLINK-32442          
1 61729C 24196Y   26115.15256944  .00000418  00000+0  14100-4 0  1150
2 61729  53.1574 245.4775 0001219  93.5452 166.7950 15.30188936    16
STARLINK-32362          
1 61845C 24202A   26115.14215278  .00024595  00000+0  89144-3 0  1152
2 61845  43.0026 324.4206 0001593 280.0257  13.0703 15.27543366    11
STARLINK-32472          
1 61846C 24202B   26115.15118056  .00031831  00000+0  11532-2 0  1156
2 61846  43.0012 324.8983 0001518 275.1472 208.2940 15.27554385    18
STARLINK-32352          
1 61847C 24202C   26115.09631944  .00037954  00000+0  13757-2 0  1159
2 61847  43.0020 324.6110 0001531 284.6427 144.4296 15.27535815    10
STARLINK-32427          
1 61848C 24202D   26115.14145833  .00026239  00000+0  95071-3 0  1157
2 61848  43.0037 324.5602 0001548 274.3271 318.3146 15.27553546    12
STARLINK-32346          
1 61849C 24202E   26115.10395833  .00054983  00000+0  19923-2 0  1159
2 61849  43.0035 324.8228 0001738 282.2358  82.7309 15.27536766    11
STARLINK-32330          
1 61850C 24202F   26115.12479167  .00060608  00000+0  21955-2 0  1155
2 61850  43.0037 335.3928 0001797 280.8403  72.3784 15.27543879    14
STARLINK-32379          
1 61851C 24202G   26115.15118056  .00025853  00000+0  93644-3 0  1154
2 61851  43.0019 324.2487 0001580 267.5138 124.7746 15.27563452    18
STARLINK-32433          
1 61852C 24202H   26115.14631944  .00053497  00000+0  19378-2 0  1156
2 61852  43.0038 335.3215 0001418 283.6722 166.8379 15.27548596    11
STARLINK-32394          
1 61853C 24202J   26115.14354167  .00054872  00000+0  19871-2 0  1152
2 61853  43.0036 335.3714 0001243 276.4348 144.5946 15.27557895    19
STARLINK-32486          
1 61854C 24202K   26115.11923611  .00050872  00000+0  18430-2 0  1152
2 61854  43.0033 335.5601 0001737 266.7101 359.3504 15.27545163    12
STARLINK-32391          
1 61855C 24202L   26115.12340278  .00061992  00000+0  22464-2 0  1153
2 61855  43.0028 335.5893 0001931 281.7765 346.0005 15.27531839    13
STARLINK-32483          
1 61856C 24202M   26115.14284722  .00050716  00000+0  18372-2 0  1152
2 61856  43.0038 335.5260 0001967 279.7418  73.8359 15.27547827    15
